{
  "norad_id": 68557,
  "name": "STARLINK-37210",
  "history": [
    {
      "epoch": "2026-04-09T20:00:01.999008Z",
      "apogee_km": 273.4510934441114,
      "perigee_km": 272.53722802262655,
      "latitude_deg": -32.938051897508764,
      "longitude_deg": 61.85244588204648,
      "height_km": 283.27421230465234,
      "semi_major_axis_km": 6651.131160733369,
      "eccentricity": 6.87e-05,
      "inclination_deg": 53.1587,
      "raan_deg": 228.7951,
      "arg_perigee_deg": 45.8132,
      "mean_anomaly_deg": 271.7032,
      "mean_motion_rev_day": 16.0051406
    }
  ]
}