STARLINK-37210          
1 68557U 26070R   26099.83335647 -.00946129  30221-3 -17457-2 0  9991
2 68557  53.1587 228.7951 0000687  45.8132 271.7032 16.00514060  2388
